OBJECT_NAME,OBJECT_ID,EPOCH,MEAN_MOTION,ECCENTRICITY,INCLINATION,RA_OF_ASC_NODE,ARG_OF_PERICENTER,MEAN_ANOMALY,EPHEMERIS_TYPE,CLASSIFICATION_TYPE,NORAD_CAT_ID,ELEMENT_SET_NO,REV_AT_EPOCH,BSTAR,MEAN_MOTION_DOT,MEAN_MOTION_DDOT
STARLINK-3863,2022-049Q,2023-02-02T03:40:21.423936,15.08838373,.0001434,53.2161,88.7917,85.0499,275.0657,0,U,52465,999,4172,-.21965E-4,-.637E-5,0
STARLINK-3840,2022-049R,2023-02-01T10:04:29.123328,15.08841342,.0001738,53.2177,102.0818,97.4389,262.6800,0,U,52466,999,4131,.23861E-5,-.25E-5,0
STARLINK-3873,2022-049S,2023-02-02T03:39:01.357056,15.08838805,.0001159,53.2184,98.7979,75.5949,284.5172,0,U,52467,999,4158,-.62684E-4,-.1285E-4,0
STARLINK-3864,2022-049T,2023-02-01T20:56:17.449152,15.08837396,.0001493,53.2168,100.0554,77.2220,282.8939,0,U,52468,999,4154,-.43769E-4,-.984E-5,0
STARLINK-3828,2022-049U,2023-02-01T21:06:52.094304,15.08851371,.0001344,53.2165,100.0178,86.2685,273.8461,0,U,52469,999,4154,.1894E-3,.2729E-4,0
STARLINK-3859,2022-049V,2023-02-01T12:48:44.819712,15.08850672,.000136,53.2167,101.5704,109.8497,250.2642,0,U,52470,999,4149,.86514E-4,.109E-4,0
STARLINK-3862,2022-049W,2023-02-01T21:01:34.654656,15.08846360,.0001458,53.2183,100.0299,81.5357,278.5800,0,U,52471,999,4154,.17018E-4,-.17E-6,0
STARLINK-3881,2022-049X,2023-02-01T11:08:04.267392,15.08847864,.0001413,53.2158,101.8888,79.4378,280.6773,0,U,52472,999,4132,.15661E-3,.2206E-4,0
STARLINK-3879,2022-049Y,2023-02-02T01:37:08.965632,15.08835114,.0001248,53.2153,99.1798,90.6621,269.4514,0,U,52473,999,4157,-.29554E-4,-.758E-5,0
STARLINK-3855,2022-049Z,2023-02-01T22:43:35.757696,15.08840460,.0001235,53.2174,89.7150,82.2487,277.8645,0,U,52474,999,4169,.36145E-5,-.23E-5,0
STARLINK-3882,2022-049AA,2023-02-01T09:34:04.393344,15.08830693,.0001343,53.2161,102.1781,96.7423,263.3722,0,U,52475,999,4147,.2958E-3,.4422E-4,0
STARLINK-3835,2022-049AB,2023-02-02T03:24:27.763200,15.08836526,.0001617,53.2202,88.8394,89.4324,270.6853,0,U,52476,999,4172,.37086E-4,.302E-5,0
STARLINK-3860,2022-049AC,2023-02-02T03:35:03.419232,15.08839227,.0001369,53.2159,88.8066,87.7182,272.3967,0,U,52477,999,4172,.49752E-4,.504E-5,0
STARLINK-3825,2022-049AD,2023-02-01T10:57:28.673568,15.08851980,.000117,53.2151,101.9177,73.7347,286.3774,0,U,52478,999,4148,-.33526E-4,-.822E-5,0
STARLINK-3878,2022-049AE,2023-02-01T22:27:42.242112,15.08826660,.0001047,53.2194,89.7613,130.3021,229.8063,0,U,52479,999,4169,.76397E-4,.928E-5,0
STARLINK-3839,2022-049AF,2023-02-01T21:59:52.404000,15.08844287,.0000866,53.2169,99.8572,61.9882,298.1198,0,U,52480,999,4155,.52287E-4,.545E-5,0
STARLINK-3842,2022-049AG,2023-02-01T12:38:08.973600,15.08851528,.0001235,53.2148,101.6102,87.5960,272.5173,0,U,52481,999,4257,.57591E-4,.629E-5,0
STARLINK-3813,2022-049AH,2023-02-02T03:03:15.940512,15.08831970,.0001263,53.2172,88.8989,82.3725,277.7411,0,U,52482,999,4172,.32047E-4,.222E-5,0
STARLINK-3875,2022-049AJ,2023-02-01T20:57:36.696960,15.08838017,.0001,53.2182,90.0387,99.1099,261.0006,0,U,52483,999,4168,.81115E-6,-.275E-5,0
STARLINK-3887,2022-049AK,2023-02-01T10:46:52.535424,15.08846292,.0001494,53.2174,101.9555,92.0658,268.0505,0,U,52484,999,4148,.1129E-3,.151E-4,0
STARLINK-3913,2022-049AL,2023-02-02T03:08:33.830304,15.08836905,.0001798,53.2168,88.8837,80.3474,279.7721,0,U,52485,999,4172,.28665E-4,.168E-5,0
STARLINK-3918,2022-049AM,2023-02-02T04:05:31.852320,15.08833806,.0001242,53.2153,98.7177,95.0778,265.0355,0,U,52486,999,4159,.22586E-5,-.252E-5,0
STARLINK-3902,2022-049AN,2023-02-02T03:09:56.306880,15.08836768,.0001774,53.2181,88.8771,87.0029,273.1166,0,U,52487,999,4172,.98122E-5,-.132E-5,0
STARLINK-3892,2022-049AP,2023-02-02T04:00:13.420800,15.08838801,.0001186,53.2159,98.7356,78.0210,282.0915,0,U,52488,999,4159,.71227E-4,.846E-5,0
STARLINK-3923,2022-049AQ,2023-02-02T04:10:49.863072,15.08834533,.000172,53.2159,98.6941,86.3044,273.8145,0,U,52489,999,4159,.28556E-4,.166E-5,0
STARLINK-3914,2022-049AR,2023-02-01T20:25:49.045440,15.08836270,.0001251,53.2167,90.1497,113.5989,246.5134,0,U,52490,999,4168,-.44554E-4,-.997E-5,0
STARLINK-3908,2022-049AS,2023-02-01T12:39:28.948896,15.08844522,.0001303,53.2148,91.6041,91.9721,268.1420,0,U,52491,999,4147,.12986E-3,.178E-4,0
STARLINK-3916,2022-049AT,2023-02-01T09:07:31.017504,15.08838341,.0001141,53.2142,92.2560,89.3682,270.7441,0,U,52492,999,4145,.63586E-4,.724E-5,0
STARLINK-3883,2022-049AU,2023-02-02T02:52:39.497376,15.08839508,.0001503,53.2159,88.9491,90.4309,269.6856,0,U,52493,999,4172,.10698E-4,-.118E-5,0
STARLINK-3857,2022-049AV,2023-02-02T03:56:15.031104,15.08836770,.0001277,53.2167,88.7398,117.1999,242.9123,0,U,52494,999,4173,-.133E-4,-.5E-5,0
