STARLINK-3863           
1 52465U 22049Q   23033.15302574 -.00000637  00000+0 -21965-4 0  9991
2 52465  53.2161  88.7917 0001434  85.0499 275.0657 15.08838373 41721
STARLINK-3840           
1 52466U 22049R   23032.41978152 -.00000250  00000+0  23861-5 0  9999
2 52466  53.2177 102.0818 0001738  97.4389 262.6800 15.08841342 41318
STARLINK-3873           
1 52467U 22049S   23033.15209904 -.00001285  00000+0 -62684-4 0  9999
2 52467  53.2184  98.7979 0001159  75.5949 284.5172 15.08838805 41586
STARLINK-3864           
1 52468U 22049T   23032.87242418 -.00000984  00000+0 -43769-4 0  9993
2 52468  53.2168 100.0554 0001493  77.2220 282.8939 15.08837396 41549
STARLINK-3828           
1 52469U 22049U   23032.87976961  .00002729  00000+0  18940-3 0  9990
2 52469  53.2165 100.0178 0001344  86.2685 273.8461 15.08851371 41548
STARLINK-3859           
1 52470U 22049V   23032.53385208  .00001090  00000+0  86514-4 0  9996
2 52470  53.2167 101.5704 0001360 109.8497 250.2642 15.08850672 41491
STARLINK-3862           
1 52471U 22049W   23032.87609554 -.00000017  00000+0  17018-4 0  9999
2 52471  53.2183 100.0299 0001458  81.5357 278.5800 15.08846360 41546
STARLINK-3881           
1 52472U 22049X   23032.46393828  .00002206  00000+0  15661-3 0  9991
2 52472  53.2158 101.8888 0001413  79.4378 280.6773 15.08847864 41321
STARLINK-3879           
1 52473U 22049Y   23033.06746488 -.00000758  00000+0 -29554-4 0  9992
2 52473  53.2153  99.1798 0001248  90.6621 269.4514 15.08835114 41578
STARLINK-3855           
1 52474U 22049Z   23032.94694164 -.00000230  00000+0  36145-5 0  9991
2 52474  53.2174  89.7150 0001235  82.2487 277.8645 15.08840460 41693
STARLINK-3882           
1 52475U 22049AA  23032.39866196  .00004422  00000+0  29580-3 0  9996
2 52475  53.2161 102.1781 0001343  96.7423 263.3722 15.08830693 41479
STARLINK-3835           
1 52476U 22049AB  23033.14198800  .00000302  00000+0  37086-4 0  9995
2 52476  53.2202  88.8394 0001617  89.4324 270.6853 15.08836526 41724
STARLINK-3860           
1 52477U 22049AC  23033.14934513  .00000504  00000+0  49752-4 0  9992
2 52477  53.2159  88.8066 0001369  87.7182 272.3967 15.08839227 41725
STARLINK-3825           
1 52478U 22049AD  23032.45658187 -.00000822  00000+0 -33526-4 0  9993
2 52478  53.2151 101.9177 0001170  73.7347 286.3774 15.08851980 41480
STARLINK-3878           
1 52479U 22049AE  23032.93590558  .00000928  00000+0  76397-4 0  9992
2 52479  53.2194  89.7613 0001047 130.3021 229.8063 15.08826660 41691
STARLINK-3839           
1 52480U 22049AF  23032.91657875  .00000545  00000+0  52287-4 0  9995
2 52480  53.2169  99.8572 0000866  61.9882 298.1198 15.08844287 41551
STARLINK-3842           
1 52481U 22049AG  23032.52649275  .00000629  00000+0  57591-4 0  9994
2 52481  53.2148 101.6102 0001235  87.5960 272.5173 15.08851528 42570
STARLINK-3813           
1 52482U 22049AH  23033.12726783  .00000222  00000+0  32047-4 0  9990
2 52482  53.2172  88.8989 0001263  82.3725 277.7411 15.08831970 41727
STARLINK-3875           
1 52483U 22049AJ  23032.87334140 -.00000275  00000+0  81115-6 0  9995
2 52483  53.2182  90.0387 0001000  99.1099 261.0006 15.08838017 41685
STARLINK-3887           
1 52484U 22049AK  23032.44921916  .00001510  00000+0  11290-3 0  9998
2 52484  53.2174 101.9555 0001494  92.0658 268.0505 15.08846292 41489
STARLINK-3913           
1 52485U 22049AL  23033.13094711  .00000168  00000+0  28665-4 0  9993
2 52485  53.2168  88.8837 0001798  80.3474 279.7721 15.08836905 41728
STARLINK-3918           
1 52486U 22049AM  23033.17050755 -.00000252  00000+0  22586-5 0  9990
2 52486  53.2153  98.7177 0001242  95.0778 265.0355 15.08833806 41597
STARLINK-3902           
1 52487U 22049AN  23033.13190170 -.00000132  00000+0  98122-5 0  9999
2 52487  53.2181  88.8771 0001774  87.0029 273.1166 15.08836768 41724
STARLINK-3892           
1 52488U 22049AP  23033.16682200  .00000846  00000+0  71227-4 0  9990
2 52488  53.2159  98.7356 0001186  78.0210 282.0915 15.08838801 41594
STARLINK-3923           
1 52489U 22049AQ  23033.17418823  .00000166  00000+0  28556-4 0  9992
2 52489  53.2159  98.6941 0001720  86.3044 273.8145 15.08834533 41596
STARLINK-3914           
1 52490U 22049AR  23032.85126210 -.00000997  00000+0 -44554-4 0  9994
2 52490  53.2167  90.1497 0001251 113.5989 246.5134 15.08836270 41685
STARLINK-3908           
1 52491U 22049AS  23032.52741839  .00001780  00000+0  12986-3 0  9991
2 52491  53.2148  91.6041 0001303  91.9721 268.1420 15.08844522 41471
STARLINK-3916           
1 52492U 22049AT  23032.38022011  .00000724  00000+0  63586-4 0  9990
2 52492  53.2142  92.2560 0001141  89.3682 270.7441 15.08838341 41458
STARLINK-3883           
1 52493U 22049AU  23033.11990159 -.00000118  00000+0  10698-4 0  9994
2 52493  53.2159  88.9491 0001503  90.4309 269.6856 15.08839508 41726
STARLINK-3857           
1 52494U 22049AV  23033.16406286 -.00000500  00000+0 -13300-4 0  9992
2 52494  53.2167  88.7398 0001277 117.1999 242.9123 15.08836770 41730
